[{"OBJECT_NAME":"ONEWEB-0657","OBJECT_ID":"2023-029Y","EPOCH":"2026-03-09T23:31:49.684224","MEAN_MOTION":13.1972422,"ECCENTRICITY":0.00021216,"INCLINATION":87.9227,"RA_OF_ASC_NODE":324.7432,"ARG_OF_PERICENTER":63.2594,"MEAN_ANOMALY":296.8756,"EPHEMERIS_TYPE":0,"CLASSIFICATION_TYPE":"U","NORAD_CAT_ID":55818,"ELEMENT_SET_NO":999,"REV_AT_EPOCH":14582,"BSTAR":-0.00038037314,"MEAN_MOTION_DOT":-1.39e-6,"MEAN_MOTION_DDOT":0},{"OBJECT_NAME":"COSMOS 1691 DEB","OBJECT_ID":"1985-094S","EPOCH":"2026-03-09T21:55:37.718400","MEAN_MOTION":13.13898461,"ECCENTRICITY":0.00353764,"INCLINATION":82.5538,"RA_OF_ASC_NODE":233.7095,"ARG_OF_PERICENTER":314.6673,"MEAN_ANOMALY":170.0595,"EPHEMERIS_TYPE":0,"CLASSIFICATION_TYPE":"U","NORAD_CAT_ID":17168,"ELEMENT_SET_NO":999,"REV_AT_EPOCH":89038,"BSTAR":0.0071438608,"MEAN_MOTION_DOT":2.646e-5,"MEAN_MOTION_DDOT":0}]
